[{"OBJECT_NAME":"ONEWEB-0577","OBJECT_ID":"2023-043W","EPOCH":"2025-07-31T17:46:40.640160","MEAN_MOTION":13.16594819,"ECCENTRICITY":0.0002351,"INCLINATION":87.9056,"RA_OF_ASC_NODE":292.6378,"ARG_OF_PERICENTER":114.6405,"MEAN_ANOMALY":245.4971,"EPHEMERIS_TYPE":0,"CLASSIFICATION_TYPE":"U","NORAD_CAT_ID":56066,"ELEMENT_SET_NO":999,"REV_AT_EPOCH":11682,"BSTAR":0.00011023,"MEAN_MOTION_DOT":5.5e-7,"MEAN_MOTION_DDOT":0},{"OBJECT_NAME":"ONEWEB-0578","OBJECT_ID":"2023-043X","EPOCH":"2025-07-31T18:09:13.137984","MEAN_MOTION":13.21826375,"ECCENTRICITY":0.0001808,"INCLINATION":87.9271,"RA_OF_ASC_NODE":307.9045,"ARG_OF_PERICENTER":103.8489,"MEAN_ANOMALY":256.2846,"EPHEMERIS_TYPE":0,"CLASSIFICATION_TYPE":"U","NORAD_CAT_ID":56067,"ELEMENT_SET_NO":999,"REV_AT_EPOCH":11590,"BSTAR":-0.00036758,"MEAN_MOTION_DOT":-1.39e-6,"MEAN_MOTION_DDOT":0},{"OBJECT_NAME":"ONEWEB-0579","OBJECT_ID":"2023-043Y","EPOCH":"2025-07-31T19:44:36.048480","MEAN_MOTION":13.2182674,"ECCENTRICITY":0.0002219,"INCLINATION":87.9271,"RA_OF_ASC_NODE":307.8771,"ARG_OF_PERICENTER":95.2492,"MEAN_ANOMALY":264.8896,"EPHEMERIS_TYPE":0,"CLASSIFICATION_TYPE":"U","NORAD_CAT_ID":56068,"ELEMENT_SET_NO":999,"REV_AT_EPOCH":11592,"BSTAR":5.0782e-5,"MEAN_MOTION_DOT":3.4e-7,"MEAN_MOTION_DDOT":0},{"OBJECT_NAME":"ONEWEB-0581","OBJECT_ID":"2023-043Z","EPOCH":"2025-07-31T17:55:47.708544","MEAN_MOTION":13.16595277,"ECCENTRICITY":0.000242,"INCLINATION":87.9041,"RA_OF_ASC_NODE":292.6626,"ARG_OF_PERICENTER":106.1065,"MEAN_ANOMALY":254.0332,"EPHEMERIS_TYPE":0,"CLASSIFICATION_TYPE":"U","NORAD_CAT_ID":56069,"ELEMENT_SET_NO":999,"REV_AT_EPOCH":11679,"BSTAR":4.1802e-5,"MEAN_MOTION_DOT":2.9e-7,"MEAN_MOTION_DDOT":0},{"OBJECT_NAME":"ONEWEB-0609","OBJECT_ID":"2023-043AA","EPOCH":"2025-08-01T05:03:14.245056","MEAN_MOTION":13.15541984,"ECCENTRICITY":0.0001767,"INCLINATION":87.9079,"RA_OF_ASC_NODE":323.0288,"ARG_OF_PERICENTER":106.848,"MEAN_ANOMALY":253.2844,"EPHEMERIS_TYPE":0,"CLASSIFICATION_TYPE":"U","NORAD_CAT_ID":56070,"ELEMENT_SET_NO":999,"REV_AT_EPOCH":11527,"BSTAR":0.0038743,"MEAN_MOTION_DOT":1.471e-5,"MEAN_MOTION_DDOT":0},{"OBJECT_NAME":"ONEWEB-0613","OBJECT_ID":"2023-043AB","EPOCH":"2025-07-31T17:59:15.296640","MEAN_MOTION":13.15548108,"ECCENTRICITY":0.0002134,"INCLINATION":87.9091,"RA_OF_ASC_NODE":323.1328,"ARG_OF_PERICENTER":94.7302,"MEAN_ANOMALY":265.4072,"EPHEMERIS_TYPE":0,"CLASSIFICATION_TYPE":"U","NORAD_CAT_ID":56071,"ELEMENT_SET_NO":999,"REV_AT_EPOCH":11430,"BSTAR":0.00026848,"MEAN_MOTION_DOT":1.14e-6,"MEAN_MOTION_DDOT":0},{"OBJECT_NAME":"ONEWEB-0630","OBJECT_ID":"2023-043AC","EPOCH":"2025-07-31T19:41:54.839904","MEAN_MOTION":13.15546459,"ECCENTRICITY":0.0002085,"INCLINATION":87.9095,"RA_OF_ASC_NODE":323.095,"ARG_OF_PERICENTER":93.0022,"MEAN_ANOMALY":267.1347,"EPHEMERIS_TYPE":0,"CLASSIFICATION_TYPE":"U","NORAD_CAT_ID":56072,"ELEMENT_SET_NO":999,"REV_AT_EPOCH":11430,"BSTAR":-0.00015337,"MEAN_MOTION_DOT":-4.5e-7,"MEAN_MOTION_DDOT":0},{"OBJECT_NAME":"ONEWEB-0632","OBJECT_ID":"2023-043AD","EPOCH":"2025-07-31T19:35:03.912864","MEAN_MOTION":13.15546799,"ECCENTRICITY":0.0002187,"INCLINATION":87.9086,"RA_OF_ASC_NODE":323.1156,"ARG_OF_PERICENTER":100.7659,"MEAN_ANOMALY":259.3717,"EPHEMERIS_TYPE":0,"CLASSIFICATION_TYPE":"U","NORAD_CAT_ID":56073,"ELEMENT_SET_NO":999,"REV_AT_EPOCH":11430,"BSTAR":0.0019507,"MEAN_MOTION_DOT":7.47e-6,"MEAN_MOTION_DDOT":0},{"OBJECT_NAME":"ONEWEB-0633","OBJECT_ID":"2023-043AE","EPOCH":"2025-08-01T02:44:02.210208","MEAN_MOTION":13.15551536,"ECCENTRICITY":0.0001981,"INCLINATION":87.9076,"RA_OF_ASC_NODE":323.0225,"ARG_OF_PERICENTER":85.8569,"MEAN_ANOMALY":274.2788,"EPHEMERIS_TYPE":0,"CLASSIFICATION_TYPE":"U","NORAD_CAT_ID":56074,"ELEMENT_SET_NO":999,"REV_AT_EPOCH":11523,"BSTAR":-0.0026347,"MEAN_MOTION_DOT":-9.79e-6,"MEAN_MOTION_DDOT":0},{"OBJECT_NAME":"ONEWEB-0634","OBJECT_ID":"2023-043AF","EPOCH":"2025-07-31T20:54:55.917792","MEAN_MOTION":13.15549753,"ECCENTRICITY":0.0001609,"INCLINATION":87.9089,"RA_OF_ASC_NODE":323.1088,"ARG_OF_PERICENTER":94.8935,"MEAN_ANOMALY":265.2379,"EPHEMERIS_TYPE":0,"CLASSIFICATION_TYPE":"U","NORAD_CAT_ID":56075,"ELEMENT_SET_NO":999,"REV_AT_EPOCH":11428,"BSTAR":-0.00038153,"MEAN_MOTION_DOT":-1.31e-6,"MEAN_MOTION_DDOT":0},{"OBJECT_NAME":"ONEWEB-0635","OBJECT_ID":"2023-043AG","EPOCH":"2025-07-31T20:48:05.702688","MEAN_MOTION":13.15548002,"ECCENTRICITY":0.0002184,"INCLINATION":87.9061,"RA_OF_ASC_NODE":323.0831,"ARG_OF_PERICENTER":104.8219,"MEAN_ANOMALY":255.3153,"EPHEMERIS_TYPE":0,"CLASSIFICATION_TYPE":"U","NORAD_CAT_ID":56076,"ELEMENT_SET_NO":999,"REV_AT_EPOCH":11431,"BSTAR":-0.00039357,"MEAN_MOTION_DOT":-1.35e-6,"MEAN_MOTION_DDOT":0},{"OBJECT_NAME":"ONEWEB-0636","OBJECT_ID":"2023-043AH","EPOCH":"2025-08-01T02:05:14.402400","MEAN_MOTION":13.15550015,"ECCENTRICITY":0.0002119,"INCLINATION":87.9069,"RA_OF_ASC_NODE":323.0523,"ARG_OF_PERICENTER":103.7106,"MEAN_ANOMALY":256.4261,"EPHEMERIS_TYPE":0,"CLASSIFICATION_TYPE":"U","NORAD_CAT_ID":56077,"ELEMENT_SET_NO":999,"REV_AT_EPOCH":11523,"BSTAR":7.7073e-5,"MEAN_MOTION_DOT":4.2e-7,"MEAN_MOTION_DDOT":0},{"OBJECT_NAME":"ONEWEB-0637","OBJECT_ID":"2023-043AJ","EPOCH":"2025-07-31T20:27:34.825824","MEAN_MOTION":13.1554742,"ECCENTRICITY":0.0001857,"INCLINATION":87.9078,"RA_OF_ASC_NODE":323.1097,"ARG_OF_PERICENTER":110.7177,"MEAN_ANOMALY":249.4153,"EPHEMERIS_TYPE":0,"CLASSIFICATION_TYPE":"U","NORAD_CAT_ID":56078,"ELEMENT_SET_NO":999,"REV_AT_EPOCH":11431,"BSTAR":0.0002068,"MEAN_MOTION_DOT":9.1e-7,"MEAN_MOTION_DDOT":0},{"OBJECT_NAME":"ONEWEB-0647","OBJECT_ID":"2023-043AK","EPOCH":"2025-07-31T20:20:42.856800","MEAN_MOTION":13.1554965,"ECCENTRICITY":0.000212,"INCLINATION":87.9086,"RA_OF_ASC_NODE":323.1203,"ARG_OF_PERICENTER":98.5756,"MEAN_ANOMALY":261.5615,"EPHEMERIS_TYPE":0,"CLASSIFICATION_TYPE":"U","NORAD_CAT_ID":56079,"ELEMENT_SET_NO":999,"REV_AT_EPOCH":11430,"BSTAR":0.00019303,"MEAN_MOTION_DOT":8.5e-7,"MEAN_MOTION_DDOT":0},{"OBJECT_NAME":"ONEWEB-0651","OBJECT_ID":"2023-043AL","EPOCH":"2025-08-01T05:21:28.786176","MEAN_MOTION":13.1556723,"ECCENTRICITY":0.000212,"INCLINATION":87.9089,"RA_OF_ASC_NODE":323.0351,"ARG_OF_PERICENTER":106.6575,"MEAN_ANOMALY":253.4788,"EPHEMERIS_TYPE":0,"CLASSIFICATION_TYPE":"U","NORAD_CAT_ID":56080,"ELEMENT_SET_NO":999,"REV_AT_EPOCH":11435,"BSTAR":-0.0090918,"MEAN_MOTION_DOT":-3.41e-5,"MEAN_MOTION_DDOT":0},{"OBJECT_NAME":"ONEWEB-0718","OBJECT_ID":"2023-043AM","EPOCH":"2025-07-31T20:07:00.953472","MEAN_MOTION":13.15549876,"ECCENTRICITY":0.0001462,"INCLINATION":87.9089,"RA_OF_ASC_NODE":323.0945,"ARG_OF_PERICENTER":96.3803,"MEAN_ANOMALY":263.7493,"EPHEMERIS_TYPE":0,"CLASSIFICATION_TYPE":"U","NORAD_CAT_ID":56081,"ELEMENT_SET_NO":999,"REV_AT_EPOCH":11431,"BSTAR":0.00021878,"MEAN_MOTION_DOT":9.5e-7,"MEAN_MOTION_DDOT":0},{"OBJECT_NAME":"ONEWEB-0561","OBJECT_ID":"2023-068A","EPOCH":"2025-07-31T21:33:12.218976","MEAN_MOTION":13.20770136,"ECCENTRICITY":0.0002399,"INCLINATION":87.9283,"RA_OF_ASC_NODE":338.2715,"ARG_OF_PERICENTER":103.2331,"MEAN_ANOMALY":256.907,"EPHEMERIS_TYPE":0,"CLASSIFICATION_TYPE":"U","NORAD_CAT_ID":56710,"ELEMENT_SET_NO":999,"REV_AT_EPOCH":10722,"BSTAR":4.3564e-5,"MEAN_MOTION_DOT":3.1e-7,"MEAN_MOTION_DDOT":0},{"OBJECT_NAME":"ONEWEB-0668","OBJECT_ID":"2023-068B","EPOCH":"2025-08-01T04:55:47.795520","MEAN_MOTION":13.16596171,"ECCENTRICITY":0.0001441,"INCLINATION":87.9055,"RA_OF_ASC_NODE":292.538,"ARG_OF_PERICENTER":103.3782,"MEAN_ANOMALY":256.7509,"EPHEMERIS_TYPE":0,"CLASSIFICATION_TYPE":"U","NORAD_CAT_ID":56711,"ELEMENT_SET_NO":999,"REV_AT_EPOCH":11037,"BSTAR":0.00036936,"MEAN_MOTION_DOT":1.54e-6,"MEAN_MOTION_DDOT":0},{"OBJECT_NAME":"ONEWEB-0676","OBJECT_ID":"2023-068C","EPOCH":"2025-07-31T17:30:42.464160","MEAN_MOTION":13.16595818,"ECCENTRICITY":0.0002447,"INCLINATION":87.9045,"RA_OF_ASC_NODE":292.6558,"ARG_OF_PERICENTER":103.5399,"MEAN_ANOMALY":256.6005,"EPHEMERIS_TYPE":0,"CLASSIFICATION_TYPE":"U","NORAD_CAT_ID":56712,"ELEMENT_SET_NO":999,"REV_AT_EPOCH":10953,"BSTAR":-2.9105e-5,"MEAN_MOTION_DOT":2.0e-8,"MEAN_MOTION_DDOT":0},{"OBJECT_NAME":"ONEWEB-0677","OBJECT_ID":"2023-068D","EPOCH":"2025-07-31T21:17:19.164768","MEAN_MOTION":13.20771636,"ECCENTRICITY":0.0001954,"INCLINATION":87.928,"RA_OF_ASC_NODE":338.2507,"ARG_OF_PERICENTER":107.117,"MEAN_ANOMALY":253.0177,"EPHEMERIS_TYPE":0,"CLASSIFICATION_TYPE":"U","NORAD_CAT_ID":56713,"ELEMENT_SET_NO":999,"REV_AT_EPOCH":10752,"BSTAR":2.6315e-7,"MEAN_MOTION_DOT":1.3e-7,"MEAN_MOTION_DDOT":0},{"OBJECT_NAME":"ONEWEB-0678","OBJECT_ID":"2023-068E","EPOCH":"2025-07-31T19:21:23.341824","MEAN_MOTION":13.15549728,"ECCENTRICITY":0.0002162,"INCLINATION":87.909,"RA_OF_ASC_NODE":323.0722,"ARG_OF_PERICENTER":92.839,"MEAN_ANOMALY":267.2988,"EPHEMERIS_TYPE":0,"CLASSIFICATION_TYPE":"U","NORAD_CAT_ID":56714,"ELEMENT_SET_NO":999,"REV_AT_EPOCH":10716,"BSTAR":-0.000195,"MEAN_MOTION_DOT":-6.1e-7,"MEAN_MOTION_DDOT":0},{"OBJECT_NAME":"ONEWEB-0679","OBJECT_ID":"2023-068F","EPOCH":"2025-07-31T22:14:32.909856","MEAN_MOTION":13.165961,"ECCENTRICITY":0.0001925,"INCLINATION":87.9046,"RA_OF_ASC_NODE":292.6087,"ARG_OF_PERICENTER":114.155,"MEAN_ANOMALY":245.9782,"EPHEMERIS_TYPE":0,"CLASSIFICATION_TYPE":"U","NORAD_CAT_ID":56715,"ELEMENT_SET_NO":999,"REV_AT_EPOCH":10958,"BSTAR":8.4176e-5,"MEAN_MOTION_DOT":4.5e-7,"MEAN_MOTION_DDOT":0},{"OBJECT_NAME":"ONEWEB-0680","OBJECT_ID":"2023-068G","EPOCH":"2025-07-31T19:49:07.841280","MEAN_MOTION":13.21826082,"ECCENTRICITY":0.0001448,"INCLINATION":87.9263,"RA_OF_ASC_NODE":307.8788,"ARG_OF_PERICENTER":111.4799,"MEAN_ANOMALY":248.6489,"EPHEMERIS_TYPE":0,"CLASSIFICATION_TYPE":"U","NORAD_CAT_ID":56716,"ELEMENT_SET_NO":999,"REV_AT_EPOCH":10877,"BSTAR":4.3291e-5,"MEAN_MOTION_DOT":3.1e-7,"MEAN_MOTION_DDOT":0},{"OBJECT_NAME":"ONEWEB-0681","OBJECT_ID":"2023-068H","EPOCH":"2025-07-31T19:39:18.288288","MEAN_MOTION":13.23383819,"ECCENTRICITY":0.0002746,"INCLINATION":87.9269,"RA_OF_ASC_NODE":307.9019,"ARG_OF_PERICENTER":116.1221,"MEAN_ANOMALY":244.0196,"EPHEMERIS_TYPE":0,"CLASSIFICATION_TYPE":"U","NORAD_CAT_ID":56717,"ELEMENT_SET_NO":999,"REV_AT_EPOCH":10876,"BSTAR":7.5454e-5,"MEAN_MOTION_DOT":4.5e-7,"MEAN_MOTION_DDOT":0}]
